{
  "type": "FeatureCollection",
  "features": [
    {
      "type": "Feature",
      "properties": {
        "norad_id": 37836,
        "name": "EUTELSAT 16A",
        "group": "eutelsat",
        "lat": 0.012686679788357805,
        "lon": 167.07122695042415,
        "alt_km": 35788.3374839899,
        "timestamp": "2025-12-09T04:51:47.179531+00:00",
        "meta_object_name": "EUTELSAT 16A",
        "meta_object_id": "2011-057A",
        "meta_epoch": "2025-12-08T18:49:00.889248",
        "meta_mean_motion": 1.00270752,
        "meta_eccentricity": 0.0005936,
        "meta_inclination": 0.0582,
        "meta_ra_of_asc_node": 0.2489,
        "meta_arg_of_pericenter": 261.4524,
        "meta_mean_anomaly": 114.3376,
        "meta_ephemeris_type": 0,
        "meta_classification_type": "U",
        "meta_norad_cat_id": 37836,
        "meta_element_set_no": 999,
        "meta_rev_at_epoch": 541,
        "meta_bstar": 0,
        "meta_mean_motion_dot": 1.06e-06,
        "meta_mean_motion_ddot": 0,
        "tle_line1": "1 37836U 11057A   25342.78403807  .00000106  00000+0  00000+0 0  9999",
        "tle_line2": "2 37836   0.0582   0.2489 0005936 261.4524 114.3376  1.00270752  5413"
      },
      "geometry": {
        "type": "Point",
        "coordinates": [
          167.07122695042415,
          0.012686679788357805
        ]
      }
    },
    {
      "type": "Feature",
      "properties": {
        "norad_id": 38992,
        "name": "EUTELSAT 21B",
        "group": "eutelsat",
        "lat": 0.002496907291893702,
        "lon": 172.6982686023091,
        "alt_km": 35787.204379430055,
        "timestamp": "2025-12-09T04:51:47.179543+00:00",
        "meta_object_name": "EUTELSAT 21B",
        "meta_object_id": "2012-062B",
        "meta_epoch": "2025-12-08T18:50:38.234400",
        "meta_mean_motion": 1.00270733,
        "meta_eccentricity": 0.0003251,
        "meta_inclination": 0.0663,
        "meta_ra_of_asc_node": 357.3667,
        "meta_arg_of_pericenter": 269.0504,
        "meta_mean_anomaly": 115.625,
        "meta_ephemeris_type": 0,
        "meta_classification_type": "U",
        "meta_norad_cat_id": 38992,
        "meta_element_set_no": 999,
        "meta_rev_at_epoch": 4791,
        "meta_bstar": 0,
        "meta_mean_motion_dot": 1.32e-06,
        "meta_mean_motion_ddot": 0,
        "tle_line1": "1 38992U 12062B   25342.78516475  .00000132  00000+0  00000+0 0  9995",
        "tle_line2": "2 38992   0.0663 357.3667 0003251 269.0504 115.6250  1.00270733 47916"
      },
      "geometry": {
        "type": "Point",
        "coordinates": [
          172.6982686023091,
          0.002496907291893702
        ]
      }
    },
    {
      "type": "Feature",
      "properties": {
        "norad_id": 39020,
        "name": "EUTELSAT 70B",
        "group": "eutelsat",
        "lat": -0.04671582321767015,
        "lon": -138.36484799379224,
        "alt_km": 35769.4010178992,
        "timestamp": "2025-12-09T04:51:47.179555+00:00",
        "meta_object_name": "EUTELSAT 70B",
        "meta_object_id": "2012-069A",
        "meta_epoch": "2025-12-08T19:04:29.405856",
        "meta_mean_motion": 1.00272109,
        "meta_eccentricity": 0.0004304,
        "meta_inclination": 0.0654,
        "meta_ra_of_asc_node": 14.0886,
        "meta_arg_of_pericenter": 231.8562,
        "meta_mean_anomaly": 188.4879,
        "meta_ephemeris_type": 0,
        "meta_classification_type": "U",
        "meta_norad_cat_id": 39020,
        "meta_element_set_no": 999,
        "meta_rev_at_epoch": 4760,
        "meta_bstar": 0,
        "meta_mean_motion_dot": -4.2e-07,
        "meta_mean_motion_ddot": 0,
        "tle_line1": "1 39020U 12069A   25342.79478479 -.00000042  00000+0  00000+0 0  9998",
        "tle_line2": "2 39020   0.0654  14.0886 0004304 231.8562 188.4879  1.00272109 47600"
      },
      "geometry": {
        "type": "Point",
        "coordinates": [
          -138.36484799379224,
          -0.04671582321767015
        ]
      }
    },
    {
      "type": "Feature",
      "properties": {
        "norad_id": 39122,
        "name": "EUTELSAT 117 WEST A",
        "group": "eutelsat",
        "lat": 0.026980527419664457,
        "lon": 34.3629935211862,
        "alt_km": 35795.71768549688,
        "timestamp": "2025-12-09T04:51:47.179567+00:00",
        "meta_object_name": "EUTELSAT 117 WEST A",
        "meta_object_id": "2013-012A",
        "meta_epoch": "2025-12-08T14:45:38.097792",
        "meta_mean_motion": 1.00270477,
        "meta_eccentricity": 0.0003102,
        "meta_inclination": 0.0132,
        "meta_ra_of_asc_node": 342.409,
        "meta_arg_of_pericenter": 276.8987,
        "meta_mean_anomaly": 282.9194,
        "meta_ephemeris_type": 0,
        "meta_classification_type": "U",
        "meta_norad_cat_id": 39122,
        "meta_element_set_no": 999,
        "meta_rev_at_epoch": 4652,
        "meta_bstar": 0,
        "meta_mean_motion_dot": -1.1e-07,
        "meta_mean_motion_ddot": 0,
        "tle_line1": "1 39122U 13012A   25342.61502428 -.00000011  00000+0  00000+0 0  9999",
        "tle_line2": "2 39122   0.0132 342.4090 0003102 276.8987 282.9194  1.00270477 46520"
      },
      "geometry": {
        "type": "Point",
        "coordinates": [
          34.3629935211862,
          0.026980527419664457
        ]
      }
    },
    {
      "type": "Feature",
      "properties": {
        "norad_id": 39163,
        "name": "EUTELSAT 7B",
        "group": "eutelsat",
        "lat": 0.043365358920001866,
        "lon": 158.10491970067451,
        "alt_km": 35803.607000265554,
        "timestamp": "2025-12-09T04:51:47.179580+00:00",
        "meta_object_name": "EUTELSAT 7B",
        "meta_object_id": "2013-022A",
        "meta_epoch": "2025-12-08T18:46:23.640384",
        "meta_mean_motion": 1.00271368,
        "meta_eccentricity": 0.0004547,
        "meta_inclination": 0.0705,
        "meta_ra_of_asc_node": 13.1138,
        "meta_arg_of_pericenter": 300.896,
        "meta_mean_anomaly": 52.3582,
        "meta_ephemeris_type": 0,
        "meta_classification_type": "U",
        "meta_norad_cat_id": 39163,
        "meta_element_set_no": 999,
        "meta_rev_at_epoch": 4604,
        "meta_bstar": 0,
        "meta_mean_motion_dot": 5e-07,
        "meta_mean_motion_ddot": 0,
        "tle_line1": "1 39163U 13022A   25342.78221806  .00000050  00000+0  00000+0 0  9993",
        "tle_line2": "2 39163   0.0705  13.1138 0004547 300.8960  52.3582  1.00271368 46046"
      },
      "geometry": {
        "type": "Point",
        "coordinates": [
          158.10491970067451,
          0.043365358920001866
        ]
      }
    },
    {
      "type": "Feature",
      "properties": {
        "norad_id": 39612,
        "name": "EXPRESS-AT1",
        "group": "eutelsat",
        "lat": -0.0323683008925676,
        "lon": -152.85810013260837,
        "alt_km": 35783.93913273017,
        "timestamp": "2025-12-09T04:51:47.179592+00:00",
        "meta_object_name": "EXPRESS-AT1",
        "meta_object_id": "2014-010A",
        "meta_epoch": "2025-12-08T20:48:38.729952",
        "meta_mean_motion": 1.00269923,
        "meta_eccentricity": 6.44e-05,
        "meta_inclination": 0.0183,
        "meta_ra_of_asc_node": 306.8649,
        "meta_arg_of_pericenter": 247.3139,
        "meta_mean_anomaly": 251.8515,
        "meta_ephemeris_type": 0,
        "meta_classification_type": "U",
        "meta_norad_cat_id": 39612,
        "meta_element_set_no": 999,
        "meta_rev_at_epoch": 4291,
        "meta_bstar": 0,
        "meta_mean_motion_dot": 8.1e-07,
        "meta_mean_motion_ddot": 0,
        "tle_line1": "1 39612U 14010A   25342.86711493  .00000081  00000+0  00000+0 0  9999",
        "tle_line2": "2 39612   0.0183 306.8649 0000644 247.3139 251.8515  1.00269923 42919"
      },
      "geometry": {
        "type": "Point",
        "coordinates": [
          -152.85810013260837,
          -0.0323683008925676
        ]
      }
    },
    {
      "type": "Feature",
      "properties": {
        "norad_id": 39613,
        "name": "EXPRESS-AT2",
        "group": "eutelsat",
        "lat": -0.01842882581540568,
        "lon": -68.99350747136761,
        "alt_km": 35779.33122406361,
        "timestamp": "2025-12-09T04:51:47.179611+00:00",
        "meta_object_name": "EXPRESS-AT2",
        "meta_object_id": "2014-010B",
        "meta_epoch": "2025-12-08T21:07:02.668800",
        "meta_mean_motion": 1.00272548,
        "meta_eccentricity": 0.0001569,
        "meta_inclination": 0.0177,
        "meta_ra_of_asc_node": 310.7405,
        "meta_arg_of_pericenter": 332.8818,
        "meta_mean_anomaly": 250.8812,
        "meta_ephemeris_type": 0,
        "meta_classification_type": "U",
        "meta_norad_cat_id": 39613,
        "meta_element_set_no": 999,
        "meta_rev_at_epoch": 4259,
        "meta_bstar": 0,
        "meta_mean_motion_dot": -2.79e-06,
        "meta_mean_motion_ddot": 0,
        "tle_line1": "1 39613U 14010B   25342.87989200 -.00000279  00000+0  00000+0 0  9994",
        "tle_line2": "2 39613   0.0177 310.7405 0001569 332.8818 250.8812  1.00272548 42598"
      },
      "geometry": {
        "type": "Point",
        "coordinates": [
          -68.99350747136761,
          -0.01842882581540568
        ]
      }
    }
  ]
}